NORAD_CAT_ID,OBJECT_NAME,OBJECT_TYPE,EPOCH,MEAN_MOTION,ECCENTRICITY,INCLINATION,RA_OF_ASC_NODE,ARG_OF_PERICENTER,MEAN_ANOMALY,BSTAR,MEAN_MOTION_DOT,MEAN_MOTION_DDOT,TLE_LINE0,TLE_LINE1,TLE_LINE2,SEMIMAJOR_AXIS,PERIOD,APOGEE,PERIGEE,DECAYED
52346.0,STARLINK-3812,PAYLOAD,2024-04-17 07:03:56,15.08850121,0.0001314,53.2162,62.9219,88.2285,271.8858,0.00017453,2.492e-05,0.0,0 STARLINK-3812,1 52346U 22045R   24108.29440719  .00002492  00000-0  17453-3 0  9994,2 52346  53.2162  62.9219 0001314  88.2285 271.8858 15.08850121111409,6917.849,95.437,540.623,538.805,0.0
52346.0,STARLINK-3812,PAYLOAD,2024-04-18 03:43:58,15.0882955,0.0001844,53.2163,59.0578,149.4633,210.6467,-0.00010056,-1.888e-05,0.0,0 STARLINK-3812,1 52346U 22045R   24109.15553916 -.00001888  00000-0 -10056-3 0  9996,2 52346  53.2163  59.0578 0001844 149.4633 210.6467 15.08829550111533,6917.912,95.438,541.053,538.502,0.0
52346.0,STARLINK-3812,PAYLOAD,2024-04-18 06:54:45,15.08822759,0.0001643,53.216,58.4626,70.5705,289.5465,-0.00014095,-2.529e-05,0.0,0 STARLINK-3812,1 52346U 22045R   24109.28802933 -.00002529  00000-0 -14095-3 0  9996,2 52346  53.2160  58.4626 0001643  70.5705 289.5465 15.08822759111557,6917.933,95.439,540.935,538.661,0.0
52346.0,STARLINK-3812,PAYLOAD,2024-04-19 01:59:22,15.08839331,0.0001281,53.2168,54.8968,100.4177,259.696,8.9811e-05,1.142e-05,0.0,0 STARLINK-3812,1 52346U 22045R   24110.08290450  .00001142  00000-0  89811-4 0  9998,2 52346  53.2168  54.8968 0001281 100.4177 259.6960 15.08839331111673,6917.882,95.438,540.634,538.861,0.0
52346.0,STARLINK-3812,PAYLOAD,2024-04-19 06:45:32,15.08840196,0.000175,53.2175,53.9985,119.5428,240.5739,0.00026835,3.985e-05,0.0,0 STARLINK-3812,1 52346U 22045R   24110.28162277  .00003985  00000-0  26835-3 0  9998,2 52346  53.2175  53.9985 0001750 119.5428 240.5739 15.08840196111709,6917.88,95.438,540.955,538.534,0.0
52346.0,STARLINK-3812,PAYLOAD,2024-04-20 05:00:55,15.08874889,0.0001242,53.2174,49.8376,119.7919,240.3196,0.00087295,0.00013646,0.0,0 STARLINK-3812,1 52346U 22045R   24111.20897503  .00013646  00000-0  87295-3 0  9990,2 52346  53.2174  49.8376 0001242 119.7919 240.3196 15.08874889111845,6917.774,95.435,540.498,538.78,0.0
52346.0,STARLINK-3812,PAYLOAD,2024-04-20 19:19:22,15.08869942,0.0001561,53.218,47.1583,120.3336,239.7811,0.00040926,6.237e-05,0.0,0 STARLINK-3812,1 52346U 22045R   24111.80512374  .00006237  00000-0  40926-3 0  9994,2 52346  53.2180  47.1583 0001561 120.3336 239.7811 15.08869942111938,6917.789,95.436,540.734,538.574,0.0
52346.0,STARLINK-3812,PAYLOAD,2024-04-21 03:16:19,15.08819423,0.0001125,53.2176,45.6806,83.8554,276.2567,-0.00084771,-0.00013746,0.0,0 STARLINK-3812,1 52346U 22045R   24112.13633320 -.00013746  00000-0 -84771-3 0  9997,2 52346  53.2176  45.6806 0001125  83.8554 276.2567 15.08819423111983,6917.943,95.439,540.587,539.03,0.0
52346.0,STARLINK-3812,PAYLOAD,2024-04-21 04:51:42,15.08818733,0.0001084,53.2175,45.3828,85.5248,274.5868,-0.00080777,-0.00013113,0.0,0 STARLINK-3812,1 52346U 22045R   24112.20257415 -.00013113  00000-0 -80777-3 0  9992,2 52346  53.2175  45.3828 0001084  85.5248 274.5868 15.08818733111995,6917.945,95.439,540.56,539.06,0.0
52346.0,STARLINK-3812,PAYLOAD,2024-04-21 19:10:11,15.08827596,0.0001615,53.2173,42.7055,56.3612,303.7534,-0.00023057,-3.954e-05,0.0,0 STARLINK-3812,1 52346U 22045R   24112.79874332 -.00003954  00000-0 -23057-3 0  9999,2 52346  53.2173  42.7055 0001615  56.3612 303.7534 15.08827596112080,6917.918,95.438,540.901,538.666,0.0
52346.0,STARLINK-3812,PAYLOAD,2024-04-22 04:42:30,15.0883863,0.0001138,53.2176,40.9198,81.7564,278.3557,0.00073151,0.00011373,0.0,0 STARLINK-3812,1 52346U 22045R   24113.19618418  .00011373  00000-0  73151-3 0  9997,2 52346  53.2176  40.9198 0001138  81.7564 278.3557 15.08838630112149,6917.885,95.438,540.537,538.962,0.0
52346.0,STARLINK-3812,PAYLOAD,2024-04-22 22:11:44,15.08845509,0.0002606,53.2189,37.6417,142.4411,217.6764,0.00011868,1.601e-05,0.0,0 STARLINK-3812,1 52346U 22045R   24113.92482241  .00001601  00000-0  11868-3 0  9991,2 52346  53.2189  37.6417 0002606 142.4411 217.6764 15.08845509112258,6917.864,95.437,541.531,537.926,0.0
52346.0,STARLINK-3812,PAYLOAD,2024-04-23 01:22:31,15.08836122,0.0001206,53.2174,37.0577,121.378,238.733,0.00026356,3.909e-05,0.0,0 STARLINK-3812,1 52346U 22045R   24114.05730812  .00003909  00000-0  26356-3 0  9997,2 52346  53.2174  37.0577 0001206 121.3780 238.7330 15.08836122112279,6917.892,95.438,540.592,538.923,0.0
52346.0,STARLINK-3812,PAYLOAD,2024-04-23 22:02:32,15.08836459,0.000146,53.2179,33.1769,136.2892,223.8216,0.00020836,3.029e-05,0.0,0 STARLINK-3812,1 52346U 22045R   24114.91842941  .00003029  00000-0  20836-3 0  9999,2 52346  53.2179  33.1769 0001460 136.2892 223.8216 15.08836459112401,6917.891,95.438,540.766,538.746,0.0
52346.0,STARLINK-3812,PAYLOAD,2024-04-24 04:24:04,15.08843686,0.0001106,53.2177,31.9948,110.8544,249.2567,0.00022513,3.297e-05,0.0,0 STARLINK-3812,1 52346U 22045R   24115.18338884  .00003297  00000-0  22513-3 0  9996,2 52346  53.2177  31.9948 0001106 110.8544 249.2567 15.08843686112448,6917.869,95.437,540.499,538.969,0.0
52346.0,STARLINK-3812,PAYLOAD,2024-04-24 21:53:19,15.08837154,0.0001265,53.2179,28.7218,112.3418,247.7708,0.00016205,2.292e-05,0.0,0 STARLINK-3812,1 52346U 22045R   24115.91203357  .00002292  00000-0  16205-3 0  9998,2 52346  53.2179  28.7218 0001265 112.3418 247.7708 15.08837154112552,6917.889,95.438,540.629,538.879,0.0
52346.0,STARLINK-3812,PAYLOAD,2024-04-25 01:04:06,15.08834647,0.0001156,53.218,28.1276,106.2827,253.8292,0.00013465,1.855e-05,0.0,0 STARLINK-3812,1 52346U 22045R   24116.04451546  .00001855  00000-0  13465-3 0  9997,2 52346  53.2180  28.1276 0001156 106.2827 253.8292 15.08834647112579,6917.897,95.438,540.561,538.962,0.0
52346.0,STARLINK-3812,PAYLOAD,2024-04-25 21:44:06,15.08840358,0.0001191,53.2185,24.262,109.5215,250.5906,9.3815e-05,1.206e-05,0.0,0 STARLINK-3812,1 52346U 22045R   24116.90563417  .00001206  00000-0  93815-4 0  9991,2 52346  53.2185  24.2620 0001191 109.5215 250.5906 15.08840358112707,6917.879,95.438,540.568,538.92,0.0
52346.0,STARLINK-3812,PAYLOAD,2024-04-26 10:27:11,15.08855985,0.0001241,53.22,21.8969,115.0308,245.0814,0.00024375,3.595e-05,0.0,0 STARLINK-3812,1 52346U 22045R   24117.43554604  .00003595  00000-0  24375-3 0  9995,2 52346  53.2200  21.8969 0001241 115.0308 245.0814 15.08855985112782,6917.832,95.437,540.555,538.838,0.0
52346.0,STARLINK-3812,PAYLOAD,2024-04-26 21:34:54,15.08836181,0.0001574,53.2188,19.8111,97.7091,262.408,3.3479e-05,2.45e-06,0.0,0 STARLINK-3812,1 52346U 22045R   24117.89923624  .00000245  00000-0  33479-4 0  9992,2 52346  53.2188  19.8111 0001574  97.7091 262.4080 15.08836181112850,6917.892,95.438,540.846,538.668,0.0
52346.0,STARLINK-3812,PAYLOAD,2024-04-27 03:56:25,15.08855586,0.0001134,53.2181,18.6167,119.1976,240.913,0.00029529,4.417e-05,0.0,0 STARLINK-3812,1 52346U 22045R   24118.16418513  .00004417  00000-0  29529-3 0  9994,2 52346  53.2181  18.6167 0001134 119.1976 240.9130 15.08855586112895,6917.833,95.437,540.482,538.913,0.0
52346.0,STARLINK-3812,PAYLOAD,2024-04-27 10:17:57,15.08867479,9.61e-05,53.2181,17.4308,71.2761,288.8336,0.00043247,6.607e-05,0.0,0 STARLINK-3812,1 52346U 22045R   24118.42913650  .00006607  00000-0  43247-3 0  9991,2 52346  53.2181  17.4308 0000961  71.2761 288.8336 15.08867479112934,6917.796,95.436,540.326,538.997,0.0
52346.0,STARLINK-3812,PAYLOAD,2024-04-27 21:25:41,15.0882319,0.0001126,53.2179,15.3502,74.6007,285.511,-0.00039579,-6.578e-05,0.0,0 STARLINK-3812,1 52346U 22045R   24118.89284003 -.00006578  00000-0 -39579-3 0  9997,2 52346  53.2179  15.3502 0001126  74.6007 285.5110 15.08823190113003,6917.932,95.439,540.576,539.018,0.0
52346.0,STARLINK-3812,PAYLOAD,2024-04-28 02:11:50,15.08832524,0.0001065,53.218,14.4543,69.0702,291.0404,-0.00022806,-3.915e-05,0.0,0 STARLINK-3812,1 52346U 22045R   24119.09155659 -.00003915  00000-0 -22806-3 0  9991,2 52346  53.2180  14.4543 0001065  69.0702 291.0404 15.08832524113034,6917.903,95.438,540.505,539.031,0.0
52346.0,STARLINK-3812,PAYLOAD,2024-04-28 10:08:46,15.08839905,0.0001583,53.2199,12.9708,75.1458,284.9709,-5.1739e-05,-1.111e-05,0.0,0 STARLINK-3812,1 52346U 22045R   24119.42275613 -.00001111  00000-0 -51739-4 0  9995,2 52346  53.2199  12.9708 0001583  75.1458 284.9709 15.08839905113085,6917.881,95.438,540.841,538.651,0.0
52346.0,STARLINK-3812,PAYLOAD,2024-04-28 22:51:51,15.08836555,0.0001229,53.2162,10.5922,76.1766,283.9363,0.00017875,2.558e-05,0.0,0 STARLINK-3812,1 52346U 22045R   24119.95267942  .00002558  00000-0  17875-3 0  9995,2 52346  53.2162  10.5922 0001229  76.1766 283.9363 15.08836555113169,6917.891,95.438,540.606,538.906,0.0
52346.0,STARLINK-3812,PAYLOAD,2024-04-29 09:59:33,15.08849273,0.0001069,53.217,8.5067,86.5552,273.5563,0.00051762,7.962e-05,0.0,0 STARLINK-3812,1 52346U 22045R   24120.41635605  .00007962  00000-0  51762-3 0  9990,2 52346  53.2170   8.5067 0001069  86.5552 273.5563 15.08849273113231,6917.852,95.437,540.457,538.978,0.0
52346.0,STARLINK-3812,PAYLOAD,2024-04-29 21:07:15,15.08844061,0.0002169,53.2171,6.4278,75.6837,284.4396,0.0002437,3.593e-05,0.0,0 STARLINK-3812,1 52346U 22045R   24120.88004140  .00003593  00000-0  24370-3 0  9996,2 52346  53.2171   6.4278 0002169  75.6837 284.4396 15.08844061113303,6917.868,95.437,541.233,538.232,0.0
52346.0,STARLINK-3812,PAYLOAD,2024-04-29 22:42:38,15.08838247,0.0001353,53.218,6.1289,87.9809,272.1338,0.00016609,2.356e-05,0.0,0 STARLINK-3812,1 52346U 22045R   24120.94628124  .00002356  00000-0  16609-3 0  9999,2 52346  53.2180   6.1289 0001353  87.9809 272.1338 15.08838247113311,6917.886,95.438,540.687,538.815,0.0
52346.0,STARLINK-3812,PAYLOAD,2024-04-30 09:50:20,15.08850257,0.0001441,53.2161,4.0485,77.9261,282.1893,0.0003142,4.717e-05,0.0,0 STARLINK-3812,1 52346U 22045R   24121.40995623  .00004717  00000-0  31420-3 0  9993,2 52346  53.2161   4.0485 0001441  77.9261 282.1893 15.08850257113383,6917.849,95.437,540.711,538.717,0.0
